HIMAWARI-8              
1 40267U 14060A   23365.85487522 -.00000261  00000+0  00000+0 0  9998
2 40267   0.0182 199.6419 0001199  81.4265 267.3562  1.00272580 33852
